HIMAWARI-8              
1 40267U 14060A   23334.04632911 -.00000267  00000+0  00000+0 0  9995
2 40267   0.0144 141.0603 0001057 155.0474 289.8933  1.00270476 33537
